ORBCOMM FM24 [-]        
1 25478U 98053D   23305.05944059  .00001710  00000+0  64621-3 0  9990
2 25478  45.0085 198.2999 0000792  63.4549 296.6379 14.34837285312021
ORBCOMM FM25 [-]        
1 25479U 98053E   23305.02350836  .00001669  00000+0  63209-3 0  9996
2 25479  45.0076 196.7036 0002643 143.2331 216.8697 14.34816868312313
ORBCOMM FM26 [-]        
1 25480U 98053F   23305.38193418  .00001360  00000+0  52882-3 0  9991
2 25480  45.0069 188.4159 0004696 176.5402 183.5478 14.34378178312313
ORBCOMM FM27 [+]        
1 25481U 98053G   23305.42632877  .00001659  00000+0  62902-3 0  9999
2 25481  45.0059 195.0604 0001435 345.1110  14.9694 14.34793754312307
ORBCOMM FM28 [-]        
1 25482U 98053H   23304.98758664  .00001489  00000+0  56402-3 0  9992
2 25482  45.0052 136.2774 0003746 194.3842 165.6899 14.35276648312905
ORBCOMM FM30 [-]        
1 25980U 99065A   23304.94427099  .00001537  00000+0  58960-3 0  9995
2 25980  45.0339  15.8183 0007642 267.3157  92.6815 14.34507559249049
ORBCOMM FM31 [-]        
1 25981U 99065B   23305.53836463  .00001442  00000+0  55604-3 0  9998
2 25981  45.0252   6.8668 0004556 281.7477  78.2859 14.34538726248685
ORBCOMM FM32 [+]        
1 25982U 99065C   23305.52089330  .00001372  00000+0  54247-3 0  9995
2 25982  45.0178  19.3494 0006456 288.7186  71.2960 14.33478489249331
